CUTE-1 (CO-55)          
1 27844U 03031E   26185.45862507  .00000342  00000+0  16664-3 0  9995
2 27844  98.6738 193.8003 0010505 130.4916 229.7180 14.24346609194133
CUBESAT XI-IV (CO-57)   
1 27848U 03031J   26185.45575708  .00000289  00000+0  14607-3 0  9998
2 27848  98.6769 193.4963 0010079 147.8071 212.3725 14.23630269193838
CUBESAT XI-V            
1 28895U 05043F   26185.38895324  .00001770  00000+0  28553-3 0  9998
2 28895  98.3005 341.3738 0014782 147.1004 213.1126 14.72680865104285
CUTE-1.7+APD II (CO-65) 
1 32785U 08021C   26185.41716368  .00007175  00000+0  44988-3 0  9999
2 32785  97.8290 167.1964 0007935 342.3852  17.7100 15.09624900987799
CANX-2                  
1 32790U 08021H   26185.36761141  .00005717  00000+0  39897-3 0  9991
2 32790  97.8641 165.4807 0009913 354.8582   5.2541 15.05742929987393
SEEDS II (CO-66)        
1 32791U 08021J   26185.43263930  .00026699  00000+0  82865-3 0  9998
2 32791  97.7524 184.1606 0001728 182.8998 177.2234 15.33363820989935
SWISSCUBE               
1 35932U 09051B   26185.47808840  .00001528  00000+0  31098-3 0  9997
2 35932  98.4021  93.6669 0007217 148.5860 211.5774 14.62517748891680
BEESAT-1                
1 35933U 09051C   26185.01738541  .00001005  00000+0  21142-3 0  9997
2 35933  98.3948  92.7981 0005397 160.6033 199.5374 14.61748287891649
ITUPSAT1                
1 35935U 09051E   26185.02302402  .00000919  00000+0  19967-3 0  9998
2 35935  98.4031  91.9778 0007274 176.2481 183.8774 14.60466234891194
TISAT 1                 
1 36799U 10035E   26185.29489229  .00030047  00000+0  96087-3 0  9996
2 36799  98.0712 133.3699 0003634 140.6786 219.4718 15.32381693870328
AEROCUBE 4.5A           
1 38767U 12048K   26180.81601320  .02026816  74244-5  11805-2 0  9992
2 38767  64.6148 340.0554 0018867 267.4936  92.4076 16.17962819374686
STRAND-1                
1 39090U 13009E   26185.46140097  .00000341  00000+0  12909-3 0  9998
2 39090  98.3929   5.2711 0008762 171.3875 188.7464 14.37174069699547
BRITE-AUSTRIA           
1 39091U 13009F   26184.43698565  .00000188  00000+0  78355-4 0  9990
2 39091  98.4002   3.4710 0010018 184.9136 175.1954 14.36548610699389
NEE-01 PEGASO           
1 39151U 13018B   26184.34297300  .00003432  00000+0  32924-3 0  9995
2 39151  98.1245 329.0290 0013859 109.8215 250.4499 14.93742035713111
POPACS 2                
1 39269U 13055E   26185.55352132  .00026672 -75357-6  44212-3 0  9994
2 39269  80.9916 124.3106 0415888 138.0220 225.3682 14.91706940665805
POPACS 3                
1 39270U 13055F   26185.50184854  .00015835  00000+0  37473-3 0  9990
2 39270  80.9986 210.4099 0550178  17.2906 344.6220 14.56459954641070
ZACUBE-1 (TSHEPISOSAT)  
1 39417U 13066B   26184.93739966  .00003964  00000+0  30713-3 0  9991
2 39417  97.8036 147.3589 0043122 191.4127 168.6124 15.01282961683249
WNISAT-1                
1 39423U 13066H   26185.36754139  .00001519  00000+0  28336-3 0  9997
2 39423  97.7224 333.3061 0163106 177.3024 182.9095 14.58100925669239
TRITON-1                
1 39427U 13066M   26185.65095390  .00002970  00000+0  35768-3 0  9999
2 39427  97.8234  95.0597 0089848 176.3308 183.8584 14.81766816676677
GOMX-1                  
1 39430U 13066Q   26185.61741005  .00001502  00000+0  23044-3 0  9994
2 39430  97.6469  24.9795 0129187  22.1376 338.5340 14.69517955672471
CUBEBUG-2 (LO-74)       
1 39440U 13066AA  26185.61268961  .00007477  00000+0  68654-3 0  9993
2 39440  97.8913 134.6663 0056422 331.4449  28.3683 14.93916607679597
NEE-02 KRYSAOR          
1 39441U 13066AB  26185.57412199  .00004317  00000+0  47274-3 0  9998
2 39441  97.8893 124.6656 0066403  14.1893 346.1168 14.86706426678781
FUNCUBE-1 (AO-73)       
1 39444U 13066AE  26185.35696855  .00009451  00000+0  58074-3 0  9994
2 39444  97.8284 157.1639 0037390 143.1245 217.2566 15.09704322682253
UWE-3                   
1 39446U 13066AG  26185.59340155  .00005562  00000+0  47583-3 0  9993
2 39446  97.8706 141.7872 0047324 261.5347  98.0509 14.97155710680187
BRITE-CA1 (TORONTO)     
1 40020U 14033L   26185.63533524  .00001450  00000+0  22478-3 0  9995
2 40020  97.9761 314.2438 0077706 220.2855 139.2579 14.72709042644784
DUCHIFAT-1              
1 40021U 14033M   26184.69623055  .00145426  00000+0  12812-2 0  9992
2 40021  98.0432 246.2208 0000321 267.7040  92.4182 15.68277261658337
NANOSATC-BR1            
1 40024U 14033Q   26184.53744084  .00017863  00000+0  58019-3 0  9997
2 40024  98.0708 218.3796 0005235 123.7203 236.4537 15.31992881656489
QB50P1                  
1 40025U 14033R   26185.48198915  .00015142  00000+0  73515-3 0  9995
2 40025  98.0964 197.8434 0009613 156.7377 203.4292 15.18541175655657
QB50P2                  
1 40032U 14033Y   26185.46767342  .00014014  00000+0  74441-3 0  9993
2 40032  98.0760 183.4264 0009206 113.4533 246.7666 15.15401210655289
PERSEUS-M2              
1 40037U 14033AD  26185.59273373  .00001238  00000+0  11705-3 0  9996
2 40037  97.9970 136.4890 0010626 239.3297 120.6876 14.95558737653387
