OBJECT_NAME,OBJECT_ID,EPOCH,MEAN_MOTION,ECCENTRICITY,INCLINATION,RA_OF_ASC_NODE,ARG_OF_PERICENTER,MEAN_ANOMALY,EPHEMERIS_TYPE,CLASSIFICATION_TYPE,NORAD_CAT_ID,ELEMENT_SET_NO,REV_AT_EPOCH,BSTAR,MEAN_MOTION_DOT,MEAN_MOTION_DDOT
CUTE-1 (CO-55),2003-031E,2026-07-04T11:00:25.206048,14.24346609,.00105058,98.6738,193.8003,130.4916,229.7180,0,U,27844,999,19413,.16664262E-3,.342E-5,0
CUBESAT XI-IV (CO-57),2003-031J,2026-07-04T10:56:17.411712,14.23630269,.0010079,98.6769,193.4963,147.8071,212.3725,0,U,27848,999,19383,.14606589E-3,.289E-5,0
CUBESAT XI-V,2005-043F,2026-07-04T09:20:05.559936,14.72680865,.00147821,98.3005,341.3738,147.1004,213.1126,0,U,28895,999,10428,.28553467E-3,.177E-4,0
CUTE-1.7+APD II (CO-65),2008-021C,2026-07-04T10:00:42.941952,15.09624900,.00079354,97.8290,167.1964,342.3852,17.7100,0,U,32785,999,98779,.44988349E-3,.7175E-4,0
CANX-2,2008-021H,2026-07-04T08:49:21.625824,15.05742929,.00099135,97.8641,165.4807,354.8582,5.2541,0,U,32790,999,98739,.39896647E-3,.5717E-4,0
SEEDS II (CO-66),2008-021J,2026-07-04T10:23:00.035520,15.33363820,.0001728,97.7524,184.1606,182.8998,177.2234,0,U,32791,999,98993,.82864793E-3,.26699E-3,0
SWISSCUBE,2009-051B,2026-07-04T11:28:26.837760,14.62517748,.00072179,98.4021,93.6669,148.5860,211.5774,0,U,35932,999,89168,.31098137E-3,.1528E-4,0
BEESAT-1,2009-051C,2026-07-04T00:25:02.099424,14.61748287,.00053974,98.3948,92.7981,160.6033,199.5374,0,U,35933,999,89164,.21141658E-3,.1005E-4,0
ITUPSAT1,2009-051E,2026-07-04T00:33:09.275328,14.60466234,.00072743,98.4031,91.9778,176.2481,183.8774,0,U,35935,999,89119,.19967095E-3,.919E-5,0
TISAT 1,2010-035E,2026-07-04T07:04:38.693856,15.32381693,.00036347,98.0712,133.3699,140.6786,219.4718,0,U,36799,999,87032,.96086611E-3,.30047E-3,0
AEROCUBE 4.5A,2012-048K,2026-06-29T19:35:03.540480,16.17962819,.00188678,64.6148,340.0554,267.4936,92.4076,0,U,38767,999,37468,.11805476E-2,.2026816E-1,.7424434E-5
STRAND-1,2013-009E,2026-07-04T11:04:25.043808,14.37174069,.00087623,98.3929,5.2711,171.3875,188.7464,0,U,39090,999,69954,.12909264E-3,.341E-5,0
BRITE-AUSTRIA,2013-009F,2026-07-03T10:29:15.560160,14.36548610,.00100186,98.4002,3.4710,184.9136,175.1954,0,U,39091,999,69938,.78354777E-4,.188E-5,0
NEE-01 PEGASO,2013-018B,2026-07-03T08:13:52.867200,14.93742035,.00138596,98.1245,329.0290,109.8215,250.4499,0,U,39151,999,71311,.32924075E-3,.3432E-4,0
POPACS 2,2013-055E,2026-07-04T13:17:04.242048,14.91706940,.04158886,80.9916,124.3106,138.0220,225.3682,0,U,39269,999,66580,.44211588E-3,.26672E-3,-.75357E-6
POPACS 3,2013-055F,2026-07-04T12:02:39.713856,14.56459954,.05501789,80.9986,210.4099,17.2906,344.6220,0,U,39270,999,64107,.37472662E-3,.15835E-3,0
ZACUBE-1 (TSHEPISOSAT),2013-066B,2026-07-03T22:29:51.330624,15.01282961,.00431223,97.8036,147.3589,191.4127,168.6124,0,U,39417,999,68324,.30713201E-3,.3964E-4,0
WNISAT-1,2013-066H,2026-07-04T08:49:15.576096,14.58100925,.01631064,97.7224,333.3061,177.3024,182.9095,0,U,39423,999,66923,.28335644E-3,.1519E-4,0
TRITON-1,2013-066M,2026-07-04T15:37:22.416960,14.81766816,.00898482,97.8234,95.0597,176.3308,183.8584,0,U,39427,999,67667,.3576849E-3,.297E-4,0
GOMX-1,2013-066Q,2026-07-04T14:49:04.228320,14.69517955,.01291879,97.6469,24.9795,22.1376,338.5340,0,U,39430,999,67247,.2304398E-3,.1502E-4,0
CUBEBUG-2 (LO-74),2013-066AA,2026-07-04T14:42:16.382304,14.93916607,.00564222,97.8913,134.6663,331.4449,28.3683,0,U,39440,999,67959,.68653672E-3,.7477E-4,0
NEE-02 KRYSAOR,2013-066AB,2026-07-04T13:46:44.139936,14.86706426,.00664036,97.8893,124.6656,14.1893,346.1168,0,U,39441,999,67878,.47273792E-3,.4317E-4,0
FUNCUBE-1 (AO-73),2013-066AE,2026-07-04T08:34:02.082720,15.09704322,.00373909,97.8284,157.1639,143.1245,217.2566,0,U,39444,999,68225,.58073981E-3,.9451E-4,0
UWE-3,2013-066AG,2026-07-04T14:14:29.893920,14.97155710,.00473244,97.8706,141.7872,261.5347,98.0509,0,U,39446,999,68018,.47583188E-3,.5562E-4,0
BRITE-CA1 (TORONTO),2014-033L,2026-07-04T15:14:52.964736,14.72709042,.00777067,97.9761,314.2438,220.2855,139.2579,0,U,40020,999,64478,.22477598E-3,.145E-4,0
DUCHIFAT-1,2014-033M,2026-07-03T16:42:34.319520,15.68277261,.00003219,98.0432,246.2208,267.7040,92.4182,0,U,40021,999,65833,.12811874E-2,.145426E-2,0
NANOSATC-BR1,2014-033Q,2026-07-03T12:53:54.888576,15.31992881,.00052356,98.0708,218.3796,123.7203,236.4537,0,U,40024,999,65648,.58018799E-3,.17863E-3,0
QB50P1,2014-033R,2026-07-04T11:34:03.862560,15.18541175,.00096133,98.0964,197.8434,156.7377,203.4292,0,U,40025,999,65565,.73515104E-3,.15142E-3,0
QB50P2,2014-033Y,2026-07-04T11:13:26.983488,15.15401210,.00092069,98.0760,183.4264,113.4533,246.7666,0,U,40032,999,65528,.74440684E-3,.14014E-3,0
PERSEUS-M2,2014-033AD,2026-07-04T14:13:32.194272,14.95558737,.00106261,97.9970,136.4890,239.3297,120.6876,0,U,40037,999,65338,.11705014E-3,.1238E-4,0
